*******************************************************************************
Ephemeris / WWW_USER Mon Jul 15 19:17:05 2024 Pasadena, USA      / Horizons    
*******************************************************************************
Target body name: (2018 YU2)                      {source: JPL#5}
Center body name: Earth (399)                     {source: DE441}
Center-site name: Gemini South Obs., Cerro Pachon
*******************************************************************************
Start time      : A.D. 2019-Jan-29 23:52:00.0000 UT      
Stop  time      : A.D. 2019-Jan-30 10:00:00.0000 UT      
Step-size       : 1 minutes
*******************************************************************************
Target pole/equ : undefined
Target radii    : undefined                                                    
Center geodetic : 289.2634, -30.2406227, 2.71233  {E-lon(deg),Lat(deg),Alt(km)}
Center cylindric: 289.2634,5517.21435,-3194.81213 {E-lon(deg),Dxy(km),Dz(km)}
Center pole/equ : ITRF93                          {East-longitude positive}
Center radii    : 6378.137, 6378.137, 6356.752 km {Equator_a, b, pole_c}       
Target primary  : Sun
Vis. interferer : MOON (R_eq= 1737.400) km        {source: DE441}
Rel. light bend : Sun                             {source: DE441}
Rel. lght bnd GM: 1.3271E+11 km^3/s^2                                          
Small-body perts: Yes                             {source: SB441-N16}
Atmos refraction: NO (AIRLESS)
RA format       : HMS
Time format     : CAL 
Calendar mode   : Mixed Julian/Gregorian
RTS-only print  : NO       
EOP file        : eop.240715.p241008                                           
EOP coverage    : DATA-BASED 1962-JAN-20 TO 2024-JUL-15. PREDICTS-> 2024-OCT-07
Units conversion: 1 au= 149597870.700 km, c= 299792.458 km/s, 1 day= 86400.0 s 
Table cut-offs 1: Elevation (-90.0deg=NO ),Airmass (>38.000=NO), Daylight (YES)
Table cut-offs 2: Solar elongation (  0.0,180.0=NO ),Local Hour Angle( 0.0=NO )
Table cut-offs 3: RA/DEC angular rate (     0.0=NO )                           
*******************************************************************************
Initial IAU76/J2000 heliocentric ecliptic osculating elements (au, days, deg.):
  EPOCH=  2458477.5 ! 2018-Dec-25.00 (TDB)         Residual RMS= .22887        
   EC= .1533598773405833   QR= .920984914841031    TP= 2458549.1486254167      
   OM= 279.4515303175068   W=  253.4059234937716   IN= 2.850769624588425       
  Equivalent ICRF heliocentric cartesian coordinates (au, au/d):
   X=-6.842297687009524E-02  Y= 9.429126817220428E-01  Z= 4.143187104036840E-01
  VX=-1.695115058702848E-02 VY=-2.997207899955317E-03 VZ=-2.239432528215744E-03
Asteroid physical parameters (km, seconds, rotational period in hours):        
   GM= n.a.                RAD= n.a.               ROTPER= n.a.                
   H= 26.5                 G= .150                 B-V= n.a.                   
                           ALBEDO= n.a.            STYP= n.a.                  
*******************************************************************************
 Date__(UT)__HR:MN     R.A._________(ICRF)_________DEC
******************************************************
$$SOE
 2019-Jan-30 08:04  m  18 09 36.747658 -53 06 08.05726
 2019-Jan-30 08:05  m  18 09 36.957212 -53 06 06.70593
 2019-Jan-30 08:06  m  18 09 37.166427 -53 06 05.35476
 2019-Jan-30 08:07  m  18 09 37.375304 -53 06 04.00373
 2019-Jan-30 08:08  m  18 09 37.583842 -53 06 02.65284
 2019-Jan-30 08:09  m  18 09 37.792042 -53 06 01.30208
 2019-Jan-30 08:10  m  18 09 37.999904 -53 05 59.95143
 2019-Jan-30 08:11  m  18 09 38.207427 -53 05 58.60089
 2019-Jan-30 08:12  m  18 09 38.414611 -53 05 57.25045
 2019-Jan-30 08:13  m  18 09 38.621458 -53 05 55.90009
 2019-Jan-30 08:14  m  18 09 38.827965 -53 05 54.54981
 2019-Jan-30 08:15  m  18 09 39.034135 -53 05 53.19960
 2019-Jan-30 08:16  m  18 09 39.239966 -53 05 51.84944
 2019-Jan-30 08:17  m  18 09 39.445459 -53 05 50.49932
 2019-Jan-30 08:18  m  18 09 39.650613 -53 05 49.14925
 2019-Jan-30 08:19  m  18 09 39.855430 -53 05 47.79919
 2019-Jan-30 08:20  m  18 09 40.059908 -53 05 46.44915
 2019-Jan-30 08:21  m  18 09 40.264048 -53 05 45.09912
 2019-Jan-30 08:22  m  18 09 40.467850 -53 05 43.74908
 2019-Jan-30 08:23  m  18 09 40.671314 -53 05 42.39903
 2019-Jan-30 08:24  m  18 09 40.874440 -53 05 41.04895
 2019-Jan-30 08:25  m  18 09 41.077228 -53 05 39.69883
 2019-Jan-30 08:26  m  18 09 41.279679 -53 05 38.34867
 2019-Jan-30 08:27  m  18 09 41.481792 -53 05 36.99846
 2019-Jan-30 08:28  m  18 09 41.683568 -53 05 35.64817
 2019-Jan-30 08:29  m  18 09 41.885006 -53 05 34.29781
 2019-Jan-30 08:30  m  18 09 42.086107 -53 05 32.94737
 2019-Jan-30 08:31  m  18 09 42.286871 -53 05 31.59683
 2019-Jan-30 08:32  m  18 09 42.487298 -53 05 30.24618
 2019-Jan-30 08:33  m  18 09 42.687388 -53 05 28.89541
 2019-Jan-30 08:34  m  18 09 42.887141 -53 05 27.54452
 2019-Jan-30 08:35  m  18 09 43.086557 -53 05 26.19350
 2019-Jan-30 08:36  m  18 09 43.285638 -53 05 24.84232
 2019-Jan-30 08:37  m  18 09 43.484382 -53 05 23.49099
 2019-Jan-30 08:38  m  18 09 43.682789 -53 05 22.13949
 2019-Jan-30 08:39  m  18 09 43.880861 -53 05 20.78781
 2019-Jan-30 08:40 Am  18 09 44.078597 -53 05 19.43595
 2019-Jan-30 08:41 Am  18 09 44.275998 -53 05 18.08389
 2019-Jan-30 08:42 Am  18 09 44.473063 -53 05 16.73162
 2019-Jan-30 08:43 Am  18 09 44.669793 -53 05 15.37913
 2019-Jan-30 08:44 Am  18 09 44.866188 -53 05 14.02642
 2019-Jan-30 08:45 Am  18 09 45.062248 -53 05 12.67347
 2019-Jan-30 08:46 Am  18 09 45.257974 -53 05 11.32027
 2019-Jan-30 08:47 Am  18 09 45.453365 -53 05 09.96682
 2019-Jan-30 08:48 Am  18 09 45.648422 -53 05 08.61309
 2019-Jan-30 08:49 Am  18 09 45.843145 -53 05 07.25909
 2019-Jan-30 08:50 Am  18 09 46.037535 -53 05 05.90480
 2019-Jan-30 08:51 Am  18 09 46.231591 -53 05 04.55022
 2019-Jan-30 08:52 Am  18 09 46.425314 -53 05 03.19532
 2019-Jan-30 08:53 Am  18 09 46.618705 -53 05 01.84011
 2019-Jan-30 08:54 Am  18 09 46.811762 -53 05 00.48457
 2019-Jan-30 08:55 Am  18 09 47.004487 -53 04 59.12870
 2019-Jan-30 08:56 Am  18 09 47.196881 -53 04 57.77247
 2019-Jan-30 08:57 Am  18 09 47.388942 -53 04 56.41589
 2019-Jan-30 08:58 Am  18 09 47.580672 -53 04 55.05894
 2019-Jan-30 08:59 Am  18 09 47.772070 -53 04 53.70162
 2019-Jan-30 09:00 Am  18 09 47.963138 -53 04 52.34390
 2019-Jan-30 09:01 Am  18 09 48.153875 -53 04 50.98579
 2019-Jan-30 09:02 Am  18 09 48.344282 -53 04 49.62728
 2019-Jan-30 09:03 Am  18 09 48.534359 -53 04 48.26834
 2019-Jan-30 09:04 Am  18 09 48.724106 -53 04 46.90898
 2019-Jan-30 09:05 Am  18 09 48.913524 -53 04 45.54918
 2019-Jan-30 09:06 Am  18 09 49.102612 -53 04 44.18894
 2019-Jan-30 09:07 Am  18 09 49.291372 -53 04 42.82824
 2019-Jan-30 09:08 Am  18 09 49.479804 -53 04 41.46707
 2019-Jan-30 09:09 Am  18 09 49.667908 -53 04 40.10543
 2019-Jan-30 09:10 Am  18 09 49.855684 -53 04 38.74330
 2019-Jan-30 09:11 Am  18 09 50.043133 -53 04 37.38067
 2019-Jan-30 09:12 Am  18 09 50.230255 -53 04 36.01754
 2019-Jan-30 09:13 Nm  18 09 50.417051 -53 04 34.65390
 2019-Jan-30 09:14 Nm  18 09 50.603520 -53 04 33.28973
 2019-Jan-30 09:15 Nm  18 09 50.789664 -53 04 31.92502
 2019-Jan-30 09:16 Nm  18 09 50.975483 -53 04 30.55977
 2019-Jan-30 09:17 Nm  18 09 51.160976 -53 04 29.19397
 2019-Jan-30 09:18 Nm  18 09 51.346145 -53 04 27.82760
 2019-Jan-30 09:19 Nm  18 09 51.530990 -53 04 26.46066
 2019-Jan-30 09:20 Nm  18 09 51.715511 -53 04 25.09313
 2019-Jan-30 09:21 Nm  18 09 51.899709 -53 04 23.72502
 2019-Jan-30 09:22 Nm  18 09 52.083584 -53 04 22.35629
 2019-Jan-30 09:23 Nm  18 09 52.267137 -53 04 20.98696
 2019-Jan-30 09:24 Nm  18 09 52.450368 -53 04 19.61701
 2019-Jan-30 09:25 Nm  18 09 52.633277 -53 04 18.24642
 2019-Jan-30 09:26 Nm  18 09 52.815865 -53 04 16.87519
 2019-Jan-30 09:27 Nm  18 09 52.998133 -53 04 15.50331
 2019-Jan-30 09:28 Nm  18 09 53.180080 -53 04 14.13077
 2019-Jan-30 09:29 Nm  18 09 53.361708 -53 04 12.75756
 2019-Jan-30 09:30 Nm  18 09 53.543016 -53 04 11.38367
 2019-Jan-30 09:31 Nm  18 09 53.724006 -53 04 10.00909
 2019-Jan-30 09:32 Nm  18 09 53.904678 -53 04 08.63382
 2019-Jan-30 09:33 Nm  18 09 54.085032 -53 04 07.25783
 2019-Jan-30 09:34 Nm  18 09 54.265068 -53 04 05.88113
 2019-Jan-30 09:35 Nm  18 09 54.444788 -53 04 04.50370
 2019-Jan-30 09:36 Nm  18 09 54.624192 -53 04 03.12553
 2019-Jan-30 09:37 Nm  18 09 54.803280 -53 04 01.74662
 2019-Jan-30 09:38 Nm  18 09 54.982053 -53 04 00.36695
 2019-Jan-30 09:39 Nm  18 09 55.160511 -53 03 58.98652
 2019-Jan-30 09:40 Nm  18 09 55.338655 -53 03 57.60531
 2019-Jan-30 09:41 Nm  18 09 55.516485 -53 03 56.22332
 2019-Jan-30 09:42 Nm  18 09 55.694003 -53 03 54.84054
 2019-Jan-30 09:43 Nm  18 09 55.871208 -53 03 53.45695
 2019-Jan-30 09:44 Cm  18 09 56.048101 -53 03 52.07256
 2019-Jan-30 09:45 Cm  18 09 56.224682 -53 03 50.68734
 2019-Jan-30 09:46 Cm  18 09 56.400953 -53 03 49.30129
 2019-Jan-30 09:47 Cm  18 09 56.576914 -53 03 47.91440
 2019-Jan-30 09:48 Cm  18 09 56.752565 -53 03 46.52667
 2019-Jan-30 09:49 Cm  18 09 56.927906 -53 03 45.13807
 2019-Jan-30 09:50 Cm  18 09 57.102940 -53 03 43.74861
 2019-Jan-30 09:51 Cm  18 09 57.277665 -53 03 42.35827
 2019-Jan-30 09:52 Cm  18 09 57.452083 -53 03 40.96705
 2019-Jan-30 09:53 Cm  18 09 57.626195 -53 03 39.57493
 2019-Jan-30 09:54 Cm  18 09 57.800000 -53 03 38.18191
 2019-Jan-30 09:55 Cm  18 09 57.973500 -53 03 36.78797
 2019-Jan-30 09:56 Cm  18 09 58.146695 -53 03 35.39311
 2019-Jan-30 09:57 Cm  18 09 58.319586 -53 03 33.99733
 2019-Jan-30 09:58 Cm  18 09 58.492174 -53 03 32.60060
 2019-Jan-30 09:59 Cm  18 09 58.664458 -53 03 31.20292
 2019-Jan-30 10:00 Cm  18 09 58.836440 -53 03 29.80428
